$$SOE
2460728.500000000, A.D. 2025-Feb-22 00:00:00.0000, 3.011205519562718E+08, -6.447525827370234E+07, -6.566370649182297E+06,
2460735.500000000, A.D. 2025-Mar-01 00:00:00.0000, 3.057678431290794E+08, -5.195480342435482E+07, -7.117516514638115E+06,
2460742.500000000, A.D. 2025-Mar-08 00:00:00.0000, 3.099180850010810E+08, -3.934984185418381E+07, -7.657095258475101E+06,
2460749.500000000, A.D. 2025-Mar-15 00:00:00.0000, 3.135754162969454E+08, -2.668224407611790E+07, -8.184498832890125E+06,
2460756.500000000, A.D. 2025-Mar-22 00:00:00.0000, 3.167449364430530E+08, -1.397308254191075E+07, -8.699173256217746E+06,
2460763.500000000, A.D. 2025-Mar-29 00:00:00.0000, 3.194326131898173E+08, -1.242605240354426E+06, -9.200616969615731E+06,
2460770.500000000, A.D. 2025-Apr-05 00:00:00.0000, 3.216451947842971E+08, 1.148978269687609E+07, -9.688379063322136E+06,
2460777.500000000, A.D. 2025-Apr-12 00:00:00.0000, 3.233901254163589E+08, 2.420553035994674E+07, -1.016205723514310E+07,
2460784.500000000, A.D. 2025-Apr-19 00:00:00.0000, 3.246754642526897E+08, 3.688694538792954E+07, -1.062129557972840E+07,
2460791.500000000, A.D. 2025-Apr-26 00:00:00.0000, 3.255098086964548E+08, 4.951719191057878E+07, -1.106578228943863E+07,
2460798.500000000, A.D. 2025-May-03 00:00:00.0000, 3.259022222326522E+08, 6.208028294761558E+07, -1.149524731040299E+07,
2460805.500000000, A.D. 2025-May-10 00:00:00.0000, 3.258621670301690E+08, 7.456106805511107E+07, -1.190945998591930E+07,
2460812.500000000, A.D. 2025-May-17 00:00:00.0000, 3.253994413912804E+08, 8.694521690835100E+07, -1.230822671985153E+07,
2460819.500000000, A.D. 2025-May-24 00:00:00.0000, 3.245241222028231E+08, 9.921919944068345E+07, -1.269138870244420E+07,
2460826.500000000, A.D. 2025-May-31 00:00:00.0000, 3.232465127237902E+08, 1.113702634621032E+08, -1.305881972996788E+07,
2460833.500000000, A.D. 2025-Jun-07 00:00:00.0000, 3.215770951694638E+08, 1.233864115170263E+08, -1.341042399753346E+07,
2460840.500000000, A.D. 2025-Jun-14 00:00:00.0000, 3.195264855559285E+08, 1.352563768188407E+08, -1.374613371342993E+07,
2460847.500000000, A.D. 2025-Jun-21 00:00:00.0000, 3.171053918330387E+08, 1.469695954334480E+08, -1.406590692312756E+07,
2460854.500000000, A.D. 2025-Jun-28 00:00:00.0000, 3.143245782154563E+08, 1.585161768588004E+08, -1.436972569285404E+07,
2460861.500000000, A.D. 2025-Jul-05 00:00:00.0000, 3.111948339582947E+08, 1.698868754929907E+08, -1.465759434166971E+07,
2460868.500000000, A.D. 2025-Jul-12 00:00:00.0000, 3.077269451472685E+08, 1.810730624770065E+08, -1.492953768111377E+07,
2460875.500000000, A.D. 2025-Jul-19 00:00:00.0000, 3.039316694536903E+08, 1.920666975840558E+08, -1.518559932806386E+07,
2460882.500000000, A.D. 2025-Jul-26 00:00:00.0000, 2.998197138264022E+08, 2.028603013046337E+08, -1.542584011477881E+07,
2460889.500000000, A.D. 2025-Aug-02 00:00:00.0000, 2.954017149511560E+08, 2.134469273172210E+08, -1.565033659931616E+07,
2460896.500000000, A.D. 2025-Aug-09 00:00:00.0000, 2.906882222698858E+08, 2.238201354658435E+08, -1.585917967748293E+07,
2460903.500000000, A.D. 2025-Aug-16 00:00:00.0000, 2.856896834121590E+08, 2.339739652918920E+08, -1.605247330531721E+07,
2460910.500000000, A.D. 2025-Aug-23 00:00:00.0000, 2.804164321188765E+08, 2.439029102283547E+08, -1.623033335381654E+07,
2460917.500000000, A.D. 2025-Aug-30 00:00:00.0000, 2.748786787916077E+08, 2.536018932430153E+08, -1.639288656409143E+07,
2460924.500000000, A.D. 2025-Sep-06 00:00:00.0000, 2.690865020663427E+08, 2.630662449813232E+08, -1.654026938721734E+07,
2460931.500000000, A.D. 2025-Sep-13 00:00:00.0000, 2.630498395696648E+08, 2.722916819636332E+08, -1.667262675393268E+07,
2460938.500000000, A.D. 2025-Sep-20 00:00:00.0000, 2.567784809793739E+08, 2.812742832169337E+08, -1.679011120533739E+07,
2460945.500000000, A.D. 2025-Sep-27 00:00:00.0000, 2.502820643039973E+08, 2.900104684565025E+08, -1.689288222396797E+07,
2460952.500000000, A.D. 2025-Oct-04 00:00:00.0000, 2.435700732246656E+08, 2.984969783516082E+08, -1.698110553187160E+07,
2460959.500000000, A.D. 2025-Oct-11 00:00:00.0000, 2.366518349979213E+08, 3.067308559230438E+08, -1.705495239421487E+07,
2460966.500000000, A.D. 2025-Oct-18 00:00:00.0000, 2.295365190875170E+08, 3.147094287834486E+08, -1.711459897294474E+07,
2460973.500000000, A.D. 2025-Oct-25 00:00:00.0000, 2.222331365597711E+08, 3.224302922117016E+08, -1.716022573871845E+07,
2460980.500000000, A.D. 2025-Nov-01 00:00:00.0000, 2.147505401867077E+08, 3.298912930529024E+08, -1.719201693996401E+07,
2460987.500000000, A.D. 2025-Nov-08 00:00:00.0000, 2.070974252052036E+08, 3.370905143850790E+08, -1.721016013147128E+07,
2460994.500000000, A.D. 2025-Nov-15 00:00:00.0000, 1.992823308016742E+08, 3.440262608640690E+08, -1.721484577765550E+07,
2461001.500000000, A.D. 2025-Nov-22 00:00:00.0000, 1.913136426542529E+08, 3.506970449353758E+08, -1.720626694645964E+07,
2461008.500000000, A.D. 2025-Nov-29 00:00:00.0000, 1.831995963161654E+08, 3.571015750148827E+08, -1.718461898448232E+07,
2461015.500000000, A.D. 2025-Dec-06 00:00:00.0000, 1.749482791034566E+08, 3.632387454651031E+08, -1.715009897269720E+07,
2461022.500000000, A.D. 2025-Dec-13 00:00:00.0000, 1.665676308633029E+08, 3.691076249639153E+08, -1.710290527478409E+07,
2461029.500000000, A.D. 2025-Dec-20 00:00:00.0000, 1.580654470707087E+08, 3.747074442636175E+08, -1.704323741305070E+07,
2461036.500000000, A.D. 2025-Dec-27 00:00:00.0000, 1.494493831418855E+08, 3.800375859014201E+08, -1.697129596019550E+07,
2461043.500000000, A.D. 2026-Jan-03 00:00:00.0000, 1.407269584689028E+08, 3.850975752142825E+08, -1.688728236133887E+07,
2461050.500000000, A.D. 2026-Jan-10 00:00:00.0000, 1.319055602535162E+08, 3.898870719498134E+08, -1.679139874988940E+07,
2461057.500000000, A.D. 2026-Jan-17 00:00:00.0000, 1.229924473450942E+08, 3.944058623531362E+08, -1.668384778421402E+07,
2461064.500000000, A.D. 2026-Jan-24 00:00:00.0000, 1.139947541360359E+08, 3.986538517243617E+08, -1.656483250861613E+07,
2461071.500000000, A.D. 2026-Jan-31 00:00:00.0000, 1.049194945161361E+08, 4.026310574120881E+08, -1.643455623965782E+07,
2461078.500000000, A.D. 2026-Feb-07 00:00:00.0000, 9.577356592770427E+07, 4.063376021595787E+08, -1.629322248651242E+07,
2461085.500000000, A.D. 2026-Feb-14 00:00:00.0000, 8.656375375687960E+07, 4.097737077638808E+08, -1.614103492829099E+07,
2461092.500000000, A.D. 2026-Feb-21 00:00:00.0000, 7.729673643340324E+07, 4.129396896027252E+08, -1.597819743544799E+07,
2461099.500000000, A.D. 2026-Feb-28 00:00:00.0000, 6.797909014218718E+07, 4.158359531615865E+08, -1.580491394056445E+07,
2461106.500000000, A.D. 2026-Mar-07 00:00:00.0000, 5.861729107750357E+07, 4.184629905865632E+08, -1.562138812775192E+07,
2461113.500000000, A.D. 2026-Mar-14 00:00:00.0000, 4.921771800226694E+07, 4.208213749089223E+08, -1.542782338426855E+07,
2461120.500000000, A.D. 2026-Mar-21 00:00:00.0000, 3.978665688655116E+07, 4.229117548253492E+08, -1.522442294047982E+07,
2461127.500000000, A.D. 2026-Mar-28 00:00:00.0000, 3.033030561120872E+07, 4.247348510460739E+08, -1.501138992930526E+07,
2461134.500000000, A.D. 2026-Apr-04 00:00:00.0000, 2.085477812759985E+07, 4.262914532275630E+08, -1.478892738778698E+07,
2461141.500000000, A.D. 2026-Apr-11 00:00:00.0000, 1.136610834303019E+07, 4.275824171138023E+08, -1.455723825446445E+07,
2461148.500000000, A.D. 2026-Apr-18 00:00:00.0000, 1.870253888371526E+06, 4.286086618637903E+08, -1.431652537689736E+07,
2461155.500000000, A.D. 2026-Apr-25 00:00:00.0000, -7.626900188673115E+06, 4.293711675638433E+08, -1.406699153141868E+07,
2461162.500000000, A.D. 2026-May-02 00:00:00.0000, -1.711953777711902E+07, 4.298709728794385E+08, -1.380883945932809E+07,
2461169.500000000, A.D. 2026-May-09 00:00:00.0000, -2.660190798265655E+07, 4.301091727670810E+08, -1.354227193542072E+07,
2461176.500000000, A.D. 2026-May-16 00:00:00.0000, -3.606832096026521E+07, 4.300869163750159E+08, -1.326749189157015E+07,
2461183.500000000, A.D. 2026-May-23 00:00:00.0000, -4.551314325027371E+07, 4.298054061494913E+08, -1.298470251642433E+07,
2461190.500000000, A.D. 2026-May-30 00:00:00.0000, -5.493079469537909E+07, 4.292658984615477E+08, -1.269410711471930E+07,
2461197.500000000, A.D. 2026-Jun-06 00:00:00.0000, -6.431574725337103E+07, 4.284697024712464E+08, -1.239590896440306E+07,
2461204.500000000, A.D. 2026-Jun-13 00:00:00.0000, -7.366252204111195E+07, 4.274181774188823E+08, -1.209031149102968E+07,
2461211.500000000, A.D. 2026-Jun-20 00:00:00.0000, -8.296568511154237E+07, 4.261127312655253E+08, -1.177751847466055E+07,
2461218.500000000, A.D. 2026-Jun-27 00:00:00.0000, -9.221984366039366E+07, 4.245548203373609E+08, -1.145773416151163E+07,
2461225.500000000, A.D. 2026-Jul-04 00:00:00.0000, -1.014196426622437E+08, 4.227459491920158E+08, -1.113116334359390E+07,
2461232.500000000, A.D. 2026-Jul-11 00:00:00.0000, -1.105597616822743E+08, 4.206876705695082E+08, -1.079801144041699E+07,
2461239.500000000, A.D. 2026-Jul-18 00:00:00.0000, -1.196349117712589E+08, 4.183815854493992E+08, -1.045848458923674E+07,
2461246.500000000, A.D. 2026-Jul-25 00:00:00.0000, -1.286398324194614E+08, 4.158293432135286E+08, -1.011278974596712E+07,
2461253.500000000, A.D. 2026-Aug-01 00:00:00.0000, -1.375692885214471E+08, 4.130326418634968E+08, -9.761134805177838E+06,
2461260.500000000, A.D. 2026-Aug-08 00:00:00.0000, -1.464180671371349E+08, 4.099932282548107E+08, -9.403728761853307E+06,
2461267.500000000, A.D. 2026-Aug-15 00:00:00.0000, -1.551809736347467E+08, 4.067128987965975E+08, -9.040781916177720E+06,
2461274.500000000, A.D. 2026-Aug-22 00:00:00.0000, -1.638528279780196E+08, 4.031935018384891E+08, -8.672505951869100E+06,
2461281.500000000, A.D. 2026-Aug-29 00:00:00.0000, -1.724284634465963E+08, 3.994369403734931E+08, -8.299113790539950E+06,
2461288.500000000, A.D. 2026-Sep-05 00:00:00.0000, -1.809027256544650E+08, 3.954451721865276E+08, -7.920819651844352E+06,
2461295.500000000, A.D. 2026-Sep-12 00:00:00.0000, -1.892704694143509E+08, 3.912202099427030E+08, -7.537839340228051E+06,
$$EOE